{
  "norad_id": 44060,
  "name": "ONEWEB-0007",
  "history": [
    {
      "epoch": "2026-03-28T19:03:50.458464Z",
      "apogee_km": 1203.228666082513,
      "perigee_km": 1200.3170711037883,
      "latitude_deg": 2.3362683845790675e-07,
      "longitude_deg": 163.10018919680127,
      "height_km": 1204.9204691000593,
      "semi_major_axis_km": 7579.90986859315,
      "eccentricity": 0.00019206,
      "inclination_deg": 87.8926,
      "raan_deg": 275.2701,
      "arg_perigee_deg": 100.1049,
      "mean_anomaly_deg": 260.0298,
      "mean_motion_rev_day": 13.15548003
    },
    {
      "epoch": "2026-03-29T00:32:24.521856Z",
      "apogee_km": 1203.2337746343355,
      "perigee_km": 1200.3124772717929,
      "latitude_deg": 3.511992641527615e-05,
      "longitude_deg": 80.68776299013861,
      "height_km": 1204.9241347195207,
      "semi_major_axis_km": 7579.910125953064,
      "eccentricity": 0.0001927,
      "inclination_deg": 87.8926,
      "raan_deg": 275.2245,
      "arg_perigee_deg": 100.2074,
      "mean_anomaly_deg": 259.9274,
      "mean_motion_rev_day": 13.15547936
    },
    {
      "epoch": "2026-03-30T00:16:12.085536Z",
      "apogee_km": 1203.2395745984923,
      "perigee_km": 1200.3046337933465,
      "latitude_deg": 1.2104029846042548e-05,
      "longitude_deg": 83.56712916406086,
      "height_km": 1204.9162621799505,
      "semi_major_axis_km": 7579.909104195919,
      "eccentricity": 0.0001936,
      "inclination_deg": 87.8925,
      "raan_deg": 275.0266,
      "arg_perigee_deg": 99.8885,
      "mean_anomaly_deg": 260.2464,
      "mean_motion_rev_day": 13.15548202
    },
    {
      "epoch": "2026-03-30T05:44:46.134240Z",
      "apogee_km": 1203.2428951137454,
      "perigee_km": 1200.3008292879704,
      "latitude_deg": -4.085346430537633e-05,
      "longitude_deg": 1.1547614411984806,
      "height_km": 1204.9167814560658,
      "semi_major_axis_km": 7579.908862200858,
      "eccentricity": 0.00019407,
      "inclination_deg": 87.8925,
      "raan_deg": 274.981,
      "arg_perigee_deg": 99.8944,
      "mean_anomaly_deg": 260.2405,
      "mean_motion_rev_day": 13.15548265
    },
    {
      "epoch": "2026-03-30T13:02:51.557856Z",
      "apogee_km": 1203.2494309656413,
      "perigee_km": 1200.294024552688,
      "latitude_deg": 4.397689055683576e-05,
      "longitude_deg": -108.72859572056079,
      "height_km": 1204.911467916023,
      "semi_major_axis_km": 7579.908727759164,
      "eccentricity": 0.00019495,
      "inclination_deg": 87.8925,
      "raan_deg": 274.9201,
      "arg_perigee_deg": 99.6468,
      "mean_anomaly_deg": 260.4883,
      "mean_motion_rev_day": 13.155483
    },
    {
      "epoch": "2026-03-30T18:31:25.629888Z",
      "apogee_km": 1203.2506279774752,
      "perigee_km": 1200.293856980169,
      "latitude_deg": 3.3169496773768396e-05,
      "longitude_deg": 168.85894063364677,
      "height_km": 1204.9118685551211,
      "semi_major_axis_km": 7579.909242478822,
      "eccentricity": 0.00019504,
      "inclination_deg": 87.8926,
      "raan_deg": 274.8745,
      "arg_perigee_deg": 99.6378,
      "mean_anomaly_deg": 260.4973,
      "mean_motion_rev_day": 13.15548166
    },
    {
      "epoch": "2026-03-31T18:15:13.238496Z",
      "apogee_km": 1203.266100438408,
      "perigee_km": 1200.278100271048,
      "latitude_deg": 2.167034484952279e-07,
      "longitude_deg": 171.73821955298388,
      "height_km": 1204.914309983963,
      "semi_major_axis_km": 7579.909100354727,
      "eccentricity": 0.0001971,
      "inclination_deg": 87.8926,
      "raan_deg": 274.6767,
      "arg_perigee_deg": 99.6378,
      "mean_anomaly_deg": 260.4975,
      "mean_motion_rev_day": 13.15548203
    },
    {
      "epoch": "2026-04-01T17:59:00.853152Z",
      "apogee_km": 1203.2673908721308,
      "perigee_km": 1200.2748431475347,
      "latitude_deg": -6.184425915394171e-05,
      "longitude_deg": 174.61757206633004,
      "height_km": 1204.902509906937,
      "semi_major_axis_km": 7579.9081170098325,
      "eccentricity": 0.0001974,
      "inclination_deg": 87.8927,
      "raan_deg": 274.479,
      "arg_perigee_deg": 99.2032,
      "mean_anomaly_deg": 260.9321,
      "mean_motion_rev_day": 13.15548459
    },
    {
      "epoch": "2026-04-02T17:42:48.524832Z",
      "apogee_km": 1203.2553502557103,
      "perigee_km": 1200.2885738879559,
      "latitude_deg": 1.9324740784672133e-05,
      "longitude_deg": 177.4966911371027,
      "height_km": 1204.8964644590178,
      "semi_major_axis_km": 7579.908962071833,
      "eccentricity": 0.0001957,
      "inclination_deg": 87.8928,
      "raan_deg": 274.2813,
      "arg_perigee_deg": 99.0137,
      "mean_anomaly_deg": 261.1215,
      "mean_motion_rev_day": 13.15548239
    },
    {
      "epoch": "2026-04-02T21:21:51.172704Z",
      "apogee_km": 1203.264604333327,
      "perigee_km": 1200.273573390662,
      "latitude_deg": 2.620907517299118e-05,
      "longitude_deg": 122.5553283151162,
      "height_km": 1204.8903618028835,
      "semi_major_axis_km": 7579.906088861994,
      "eccentricity": 0.0001973,
      "inclination_deg": 87.8927,
      "raan_deg": 274.2509,
      "arg_perigee_deg": 98.816,
      "mean_anomaly_deg": 261.3194,
      "mean_motion_rev_day": 13.15548987
    },
    {
      "epoch": "2026-04-03T13:47:33.444096Z",
      "apogee_km": 1203.2799924112605,
      "perigee_km": 1200.2616731122553,
      "latitude_deg": 1.1583783686135557e-05,
      "longitude_deg": -124.68239375885527,
      "height_km": 1204.8895119772644,
      "semi_major_axis_km": 7579.907832761758,
      "eccentricity": 0.0001991,
      "inclination_deg": 87.8927,
      "raan_deg": 274.114,
      "arg_perigee_deg": 98.6373,
      "mean_anomaly_deg": 261.4983,
      "mean_motion_rev_day": 13.15548533
    }
  ]
}